start=new Date('2021-08-29T00:00:00.000Z').valueOf();
sats=[{"RCS_SIZE":"LARGE","PERIOD":"95.592","FILE":"3104555","ELEMENT_SET_NO":"999","MEAN_MOTION_DOT":"0.00001834","MEAN_ANOMALY":"269.0380","TLE_LINE2":"2 45745  53.0549 100.7580 0001973  91.0835 269.0380 15.06402498 66920","LAUNCH_DATE":"2020-06-13","ARG_OF_PERICENTER":"91.0835","NORAD_CAT_ID":"45745","BSTAR":"0.00014200000000","MEAN_MOTION_DDOT":"0.0000000000000","ECCENTRICITY":"0.00019730","EPOCH":"2021-08-28T21:41:58.318080","MEAN_MOTION":"15.06402498","DECAY_DATE":null,"EPHEMERIS_TYPE":"0","APOAPSIS":"548.572","TIME_SYSTEM":"UTC","OBJECT_NAME":"STARLINK-1503","REV_AT_EPOCH":"6692","CENTER_NAME":"EARTH","GP_ID":"183636673","CLASSIFICATION_TYPE":"U","RA_OF_ASC_NODE":"100.7580","COUNTRY_CODE":"US","SEMIMAJOR_AXIS":"6925.341","OBJECT_ID":"2020-038R","MEAN_ELEMENT_THEORY":"SGP4","REF_FRAME":"TEME","OBJECT_TYPE":"PAYLOAD","SITE":"AFETR","TLE_LINE1":"1 45745U 20038R   21240.90414720  .00001834  00000-0  14200-3 0  9990","PERIAPSIS":"545.840","INCLINATION":"53.0549"},{"ARG_OF_PERICENTER":"91.7601","LAUNCH_DATE":"2020-06-13","NORAD_CAT_ID":"45746","MEAN_MOTION_DDOT":"0.0000000000000","ECCENTRICITY":"0.00020740","BSTAR":"0.00124670000000","DECAY_DATE":null,"EPHEMERIS_TYPE":"0","APOAPSIS":"548.661","TIME_SYSTEM":"UTC","EPOCH":"2021-08-28T22:03:13.506912","MEAN_MOTION":"15.06396406","FILE":"3104555","RCS_SIZE":"LARGE","PERIOD":"95.592","MEAN_MOTION_DOT":"0.00018335","ELEMENT_SET_NO":"999","MEAN_ANOMALY":"268.3626","TLE_LINE2":"2 45746  53.0541 100.6971 0002074  91.7601 268.3626 15.06396406 66923","MEAN_ELEMENT_THEORY":"SGP4","OBJECT_ID":"2020-038S","REF_FRAME":"TEME","OBJECT_TYPE":"PAYLOAD","INCLINATION":"53.0541","SITE":"AFETR","TLE_LINE1":"1 45746U 20038S   21240.91890633  .00018335  00000-0  12467-2 0  9999","PERIAPSIS":"545.788","OBJECT_NAME":"STARLINK-1504","REV_AT_EPOCH":"6692","CENTER_NAME":"EARTH","CLASSIFICATION_TYPE":"U","GP_ID":"183637422","RA_OF_ASC_NODE":"100.6971","COUNTRY_CODE":"US","SEMIMAJOR_AXIS":"6925.360"},{"MEAN_ANOMALY":"268.5425","TLE_LINE2":"2 45747  53.0543 100.9707 0002140  91.5809 268.5425 15.06407579 66921","FILE":"3104555","RCS_SIZE":"LARGE","PERIOD":"95.592","MEAN_MOTION_DOT":"0.00000381","ELEMENT_SET_NO":"999","MEAN_MOTION_DDOT":"0.0000000000000","ECCENTRICITY":"0.00021400","BSTAR":"0.00004451700000","TIME_SYSTEM":"UTC","APOAPSIS":"548.672","EPHEMERIS_TYPE":"0","DECAY_DATE":null,"MEAN_MOTION":"15.06407579","EPOCH":"2021-08-28T20:32:58.947648","ARG_OF_PERICENTER":"91.5809","LAUNCH_DATE":"2020-06-13","NORAD_CAT_ID":"45747","RA_OF_ASC_NODE":"100.9707","SEMIMAJOR_AXIS":"6925.325","COUNTRY_CODE":"US","OBJECT_NAME":"STARLINK-1506","REV_AT_EPOCH":"6692","CENTER_NAME":"EARTH","GP_ID":"183635675","CLASSIFICATION_TYPE":"U","OBJECT_TYPE":"PAYLOAD","INCLINATION":"53.0543","PERIAPSIS":"545.708","SITE":"AFETR","TLE_LINE1":"1 45747U 20038T   21240.85623782  .00000381  00000-0  44517-4 0  9997","MEAN_ELEMENT_THEORY":"SGP4","OBJECT_ID":"2020-038T","REF_FRAME":"TEME"},{"RA_OF_ASC_NODE":"100.7489","SEMIMAJOR_AXIS":"6925.342","COUNTRY_CODE":"US","OBJECT_NAME":"STARLINK-1507","REV_AT_EPOCH":"6692","CENTER_NAME":"EARTH","GP_ID":"183636425","CLASSIFICATION_TYPE":"U","OBJECT_TYPE":"PAYLOAD","PERIAPSIS":"545.835","TLE_LINE1":"1 45748U 20038U   21240.90784590 -.00000039  00000-0  16280-4 0  9996","SITE":"AFETR","INCLINATION":"53.0556","OBJECT_ID":"2020-038U","MEAN_ELEMENT_THEORY":"SGP4","REF_FRAME":"TEME","MEAN_ANOMALY":"278.8356","TLE_LINE2":"2 45748  53.0556 100.7489 0001981  81.2857 278.8356 15.06402248 66927","PERIOD":"95.592","RCS_SIZE":"LARGE","FILE":"3104555","ELEMENT_SET_NO":"999","MEAN_MOTION_DOT":"-0.00000039","BSTAR":"0.00001628000000","ECCENTRICITY":"0.00019810","MEAN_MOTION_DDOT":"0.0000000000000","MEAN_MOTION":"15.06402248","EPOCH":"2021-08-28T21:47:17.885760","APOAPSIS":"548.579","EPHEMERIS_TYPE":"0","TIME_SYSTEM":"UTC","DECAY_DATE":null,"LAUNCH_DATE":"2020-06-13","ARG_OF_PERICENTER":"81.2857","NORAD_CAT_ID":"45748"},{"MEAN_MOTION_DOT":"0.00001671","ELEMENT_SET_NO":"999","FILE":"3104555","RCS_SIZE":"LARGE","PERIOD":"95.591","TLE_LINE2":"2 45750  53.0561  80.8923 0002047  92.9589 267.1635 15.06412430 67210","MEAN_ANOMALY":"267.1635","NORAD_CAT_ID":"45750","ARG_OF_PERICENTER":"92.9589","LAUNCH_DATE":"2020-06-13","DECAY_DATE":null,"APOAPSIS":"548.593","EPHEMERIS_TYPE":"0","TIME_SYSTEM":"UTC","EPOCH":"2021-08-28T20:56:52.114560","MEAN_MOTION":"15.06412430","ECCENTRICITY":"0.00020470","MEAN_MOTION_DDOT":"0.0000000000000","BSTAR":"0.00013099000000","GP_ID":"183637173","CLASSIFICATION_TYPE":"U","REV_AT_EPOCH":"6721","CENTER_NAME":"EARTH","OBJECT_NAME":"STARLINK-1391","SEMIMAJOR_AXIS":"6925.310","COUNTRY_CODE":"US","RA_OF_ASC_NODE":"80.8923","REF_FRAME":"TEME","MEAN_ELEMENT_THEORY":"SGP4","OBJECT_ID":"2020-038W","INCLINATION":"53.0561","SITE":"AFETR","TLE_LINE1":"1 45750U 20038W   21240.87282540  .00001671  00000-0  13099-3 0  9999","PERIAPSIS":"545.758","OBJECT_TYPE":"PAYLOAD"},{"TLE_LINE2":"2 45751  53.0552  80.9202 0002003  97.3493 262.7723 15.06403409 67212","MEAN_ANOMALY":"262.7723","MEAN_MOTION_DOT":"0.00000379","ELEMENT_SET_NO":"999","FILE":"3104555","RCS_SIZE":"LARGE","PERIOD":"95.592","EPHEMERIS_TYPE":"0","APOAPSIS":"548.590","TIME_SYSTEM":"UTC","DECAY_DATE":null,"MEAN_MOTION":"15.06403409","EPOCH":"2021-08-28T20:51:33.840288","ECCENTRICITY":"0.00020030","MEAN_MOTION_DDOT":"0.0000000000000","BSTAR":"0.00004436600000","NORAD_CAT_ID":"45751","ARG_OF_PERICENTER":"97.3493","LAUNCH_DATE":"2020-06-13","COUNTRY_CODE":"US","SEMIMAJOR_AXIS":"6925.338","RA_OF_ASC_NODE":"80.9202","GP_ID":"183636923","CLASSIFICATION_TYPE":"U","REV_AT_EPOCH":"6721","CENTER_NAME":"EARTH","OBJECT_NAME":"STARLINK-1464","INCLINATION":"53.0552","PERIAPSIS":"545.816","TLE_LINE1":"1 45751U 20038X   21240.86914167  .00000379  00000-0  44366-4 0  9992","SITE":"AFETR","OBJECT_TYPE":"PAYLOAD","REF_FRAME":"TEME","MEAN_ELEMENT_THEORY":"SGP4","OBJECT_ID":"2020-038X"},{"ARG_OF_PERICENTER":"325.1404","LAUNCH_DATE":"2020-06-13","NORAD_CAT_ID":"45752","ECCENTRICITY":"0.00068280","MEAN_MOTION_DDOT":"0.0000000000000","BSTAR":"0.00038905000000","DECAY_DATE":null,"APOAPSIS":"374.130","TIME_SYSTEM":"UTC","EPHEMERIS_TYPE":"0","EPOCH":"2021-08-28T19:10:41.204928","MEAN_MOTION":"15.66293694","FILE":"3104555","RCS_SIZE":"LARGE","PERIOD":"91.937","MEAN_MOTION_DOT":"0.00040678","ELEMENT_SET_NO":"999","MEAN_ANOMALY":"34.9162","TLE_LINE2":"2 45752  52.9956 272.9977 0006828 325.1404  34.9162 15.66293694 69536","MEAN_ELEMENT_THEORY":"SGP4","OBJECT_ID":"2020-038Y","REF_FRAME":"TEME","OBJECT_TYPE":"PAYLOAD","INCLINATION":"52.9956","TLE_LINE1":"1 45752U 20038Y   21240.79908802  .00040678  00000-0  38905-3 0  9991","SITE":"AFETR","PERIAPSIS":"364.915","REV_AT_EPOCH":"6953","OBJECT_NAME":"STARLINK-1469","CENTER_NAME":"EARTH","GP_ID":"183636175","CLASSIFICATION_TYPE":"U","RA_OF_ASC_NODE":"272.9977","COUNTRY_CODE":"US","SEMIMAJOR_AXIS":"6747.658"},{"ELEMENT_SET_NO":"999","MEAN_MOTION_DOT":"0.00001713","PERIOD":"95.592","RCS_SIZE":"LARGE","FILE":"3104555","TLE_LINE2":"2 45753  53.0549  80.8639 0002133  84.4754 275.6478 15.06404497 67212","MEAN_ANOMALY":"275.6478","NORAD_CAT_ID":"45753","LAUNCH_DATE":"2020-06-13","ARG_OF_PERICENTER":"84.4754","MEAN_MOTION":"15.06404497","EPOCH":"2021-08-28T21:07:28.841952","APOAPSIS":"548.677","TIME_SYSTEM":"UTC","EPHEMERIS_TYPE":"0","DECAY_DATE":null,"BSTAR":"0.00013385000000","MEAN_MOTION_DDOT":"0.0000000000000","ECCENTRICITY":"0.00021330","GP_ID":"183635926","CLASSIFICATION_TYPE":"U","OBJECT_NAME":"STARLINK-1476","REV_AT_EPOCH":"6721","CENTER_NAME":"EARTH","COUNTRY_CODE":"US","SEMIMAJOR_AXIS":"6925.335","RA_OF_ASC_NODE":"80.8639","REF_FRAME":"TEME","OBJECT_ID":"2020-038Z","MEAN_ELEMENT_THEORY":"SGP4","PERIAPSIS":"545.723","SITE":"AFETR","TLE_LINE1":"1 45753U 20038Z   21240.88019493  .00001713  00000-0  13385-3 0  9993","INCLINATION":"53.0549","OBJECT_TYPE":"PAYLOAD"},{"APOAPSIS":"548.652","TIME_SYSTEM":"UTC","EPHEMERIS_TYPE":"0","DECAY_DATE":null,"MEAN_MOTION":"15.06376433","EPOCH":"2021-08-28T21:12:47.873088","MEAN_MOTION_DDOT":"0.0000000000000","ECCENTRICITY":"0.00019730","BSTAR":"0.00037042000000","NORAD_CAT_ID":"45754","ARG_OF_PERICENTER":"98.8338","LAUNCH_DATE":"2020-06-13","TLE_LINE2":"2 45754  53.0560  80.8561 0001973  98.8338 261.2875 15.06376433 67218","MEAN_ANOMALY":"261.2875","MEAN_MOTION_DOT":"0.00005237","ELEMENT_SET_NO":"999","FILE":"3104555","PERIOD":"95.594","RCS_SIZE":"LARGE","INCLINATION":"53.0560","PERIAPSIS":"545.919","SITE":"AFETR","TLE_LINE1":"1 45754U 20038AA  21240.88388742  .00005237  00000-0  37042-3 0  9991","OBJECT_TYPE":"PAYLOAD","REF_FRAME":"TEME","MEAN_ELEMENT_THEORY":"SGP4","OBJECT_ID":"2020-038AA","SEMIMAJOR_AXIS":"6925.421","COUNTRY_CODE":"US","RA_OF_ASC_NODE":"80.8561","GP_ID":"183636674","CLASSIFICATION_TYPE":"U","REV_AT_EPOCH":"6721","OBJECT_NAME":"STARLINK-1477","CENTER_NAME":"EARTH"},{"OBJECT_ID":"2020-038AB","MEAN_ELEMENT_THEORY":"SGP4","REF_FRAME":"TEME","OBJECT_TYPE":"PAYLOAD","PERIAPSIS":"545.777","TLE_LINE1":"1 45755U 20038AB  21240.83596545  .00001454  00000-0  11650-3 0  9993","SITE":"AFETR","INCLINATION":"53.0547","REV_AT_EPOCH":"6719","OBJECT_NAME":"STARLINK-1478","CENTER_NAME":"EARTH","GP_ID":"183637423","CLASSIFICATION_TYPE":"U","RA_OF_ASC_NODE":"81.0693","SEMIMAJOR_AXIS":"6925.345","COUNTRY_CODE":"US","LAUNCH_DATE":"2020-06-13","ARG_OF_PERICENTER":"91.3205","NORAD_CAT_ID":"45755","BSTAR":"0.00011650000000","ECCENTRICITY":"0.00020680","MEAN_MOTION_DDOT":"0.0000000000000","MEAN_MOTION":"15.06401305","EPOCH":"2021-08-28T20:03:47.414880","EPHEMERIS_TYPE":"0","APOAPSIS":"548.642","TIME_SYSTEM":"UTC","DECAY_DATE":null,"RCS_SIZE":"LARGE","PERIOD":"95.592","FILE":"3104555","ELEMENT_SET_NO":"999","MEAN_MOTION_DOT":"0.00001454","MEAN_ANOMALY":"268.8021","TLE_LINE2":"2 45755  53.0547  81.0693 0002068  91.3205 268.8021 15.06401305 67190"}];
